    inclination => '100.2218',
    number => '4',
    argperigee => '113.0657',
    mm1 => '1.216e-05',
    mm2 => '0',
    bstar => '0.00045019',
    id => '26093',
    elset => '33',
    epoch => '55.21670491'
  },
  UNK4 => {
    orbit => '137',
    raan => '257.2185',
    meananomaly => '251.202',
    eccentricity => '0.0041412',
    meanmotion => '14.34265707',
    inclination => '100.228',
    number => '4',
    argperigee => '109.421',
    mm1 => '0.00021222',
    mm2 => '0',
    bstar => '0.0074915',
    id => '26094',
    elset => '10',
    epoch => '55.495883'
  },
  'AO-16' => {
    orbit => '52659',
    raan => '131.8875',
    meananomaly => '165.6578',
    eccentricity => '0.0010413',
    meanmotion => '14.30376916',
    inclination => '98.4595',
    number => '90005',
    argperigee => '194.4303',
    mm1 => '2.73e-06',
    mm2 => '0',
    bstar => '0.00012145',
    id => '20439',
    elset => '305',
    epoch => '55.19200807'
  },
  'SICH-1' => {
    orbit => '24121',
    raan => '40.0847',
    meananomaly => '1.7573',
    eccentricity => '0.0027007',
    meanmotion => '14.74926459',
    inclination => '82.5301',
    number => '95046',
    argperigee => '358.354',
    mm1 => '1.232e-05',
    mm2 => '0',
    bstar => '0.00017927',
    id => '23657',
    elset => '438',
    epoch => '55.00538903'
  },
  GRO => {
    orbit => '37598',
    raan => '34.5923',
    meananomaly => '154.2607',
    eccentricity => '0.0004714',
    meanmotion => '15.25179036',
    inclination => '28.4614',
    number => '91027',
    argperigee => '205.7754',
    mm1 => '6.038e-05',
    mm2 => '0',
    bstar => '0.00022549',
    id => '21225',
    elset => '810',
    epoch => '55.18632932'
  },
  'DO-17' => {
    orbit => '52663',
    raan => '133.664',
    meananomaly => '168.4989',
    eccentricity => '0.0010816',
    meanmotion => '14.30548852',
    inclination => '98.4651',
    number => '90005',
    argperigee => '191.5946',
    mm1 => '3.47e-06',
    mm2 => '0',
    bstar => '0.00014943',
    id => '20440',
    elset => '302',
    epoch => '55.14387106'
  },
  'GO-32' => {
    orbit => '8446',
    raan => '131.6634',
    meananomaly => '289.0054',
    eccentricity => '0.0002242',
    meanmotion => '14.22339499',
    inclination => '98.7325',
    number => '98043',
    argperigee => '71.1367',
    mm1 => '-4.4e-07',
    mm2 => '0',
    bstar => '0',
    id => '25397',
    elset => '258',
    epoch => '55.22209974'
  },
  'OKEAN-0' => {
    orbit => '3261',
    raan => '113.7109',
    meananomaly => '34.2026',
    eccentricity => '0.0001148',
    meanmotion => '14.6986656',
    inclination => '98.0194',
    number => '99039',
    argperigee => '325.9105',
    mm1 => '9.46e-06',
    mm2 => '0',
    bstar => '0.00016627',
    id => '25860',
    elset => '297',
    epoch => '55.23673597'
  },
  OPAL => {
    orbit => '401',
    raan => '256.7271',
    meananomaly => '249.0159',
    eccentricity => '0.0038131',
    meanmotion => '14.34173443',
    inclination => '100.2274',
    number => '4',
    argperigee => '111.5083',
    mm1 => '1.67e-06',
    mm2 => '0',
    bstar => '7.9968e-05',
    id => '26063',
    elset => '48',
    epoch => '55.07802426'
  },
  FENGYUN1 => {
    orbit => '4089',
    raan => '99.5678',
    meananomaly => '142.7439',
    eccentricity => '0.0013574',
    meanmotion => '14.10282572',
    inclination => '98.7579',
    number => '99025',
    argperigee => '217.2788',
    mm1 => '1.03e-06',
    mm2 => '0',
    bstar => '8.2219e-05',
    id => '25730',
    elset => '111',
    epoch => '55.14915378'
  },
  'OKEAN-4' => {
    orbit => '28900',
    raan => '259.1338',
    meananomaly => '337.9155',
    eccentricity => '0.0026723',
    meanmotion => '14.7553143',
    inclination => '82.5426',
    number => '94066',
    argperigee => '22.3211',
    mm1 => '7.41e-06',
    mm2 => '0',
    bstar => '0.00010504',
    id => '23317',
    elset => '520',
    epoch => '55.07678516'
  },
  HUBBLE => {
    orbit => '33938',
    raan => '242.3831',
    meananomaly => '26.8295',
    eccentricity => '0.0014354',
    meanmotion => '14.89579485',
    inclination => '28.473',
    number => '90037',
    argperigee => '333.1546',
    mm1 => '2.634e-05',
    mm2 => '0',
    bstar => '0.00025397',
    id => '20580',
    elset => '299',
    epoch => '55.14131829'
  },
  'LO-19' => {
    orbit => '52667',
    raan => '134.8709',
    meananomaly => '167.7096',
    eccentricity => '0.0011494',
    meanmotion => '14.30612151',
    inclination => '98.4756',
    number => '90005',
    argperigee => '192.3806',
    mm1 => '2.65e-06',
    mm2 => '0',
    bstar => '0.00011782',
    id => '20442',
    elset => '300',
    epoch => '55.19449593'
  },
  'PO-34' => {
    orbit => '7264',
    raan => '237.1395',
    meananomaly => '235.5811',
    eccentricity => '0.0007098',
    meanmotion => '15.04896429',
    inclination => '28.4632',
    number => '98064',
    argperigee => '124.5446',
    mm1 => '2.482e-05',
    mm2 => '0',
    bstar => '0.00015908',
    id => '25520',
    elset => '173',
    epoch => '54.88408426'
  },
  'UO-11' => {
    orbit => '85549',
    raan => '20.2113',
    meananomaly => '254.4951',
    eccentricity => '0.0012618',
    meanmotion => '14.71381725',
    inclination => '97.9679',
    number => '84021',
    argperigee => '105.7641',
    mm1 => '1.763e-05',
    mm2 => '0',
    bstar => '0.00029248',
    id => '14781',
    elset => '257',
    epoch => '54.90162404'
  },
  'TO-31' => {
    orbit => '8445',
    raan => '131.8386',
    meananomaly => '282.2817',
    eccentricity => '0.0003555',
    meanmotion => '14.22542988',
    inclination => '98.7279',
    number => '98043',
    argperigee => '77.8765',
    mm1 => '-4.4e-07',
    mm2 => '0',
    bstar => '0',
    id => '25396',
    elset => '278',
    epoch => '55.23890008'
  },
  'SO-33' => {
    orbit => '6949',
    raan => '179.0367',
    meananomaly => '201.4915',
    eccentricity => '0.0366574',
    meanmotion => '14.24410373',
    inclination => '31.4383',
    number => '98061',
    argperigee => '160.0466',
    mm1 => '1.562e-05',
    mm2 => '0',
    bstar => '0.00031466',
    id => '25509',
    elset => '150',
    epoch => '54.71562379'
  },
  'UO-14' => {
    orbit => '52657',
    raan => '125.9567',
    meananomaly => '169.866',
    eccentricity => '0.0010164',
    meanmotion => '14.30328665',
    inclination => '98.4259',
    number => '90005',
    argperigee => '190.2315',
    mm1 => '2.32e-06',
    mm2 => '0',
    bstar => '0.00010544',
    id => '20437',
    elset => '527',
    epoch => '55.20614523'
  },
  'SO-35' => {
    orbit => '5267',
    raan => '287.1547',
    meananomaly => '180.476',
    eccentricity => '0.0152917',
    meanmotion => '14.41130576',
    inclination => '96.4701',
    number => '99008',
    argperigee => '179.6567',
    mm1 => '4.01e-06',
    mm2 => '0',
    bstar => '0.00011635',
    id => '25636',
    elset => '172',
    epoch => '55.22879165'
  },
  'MET-2/21' => {
    orbit => '32743',
    raan => '358.9458',
    meananomaly => '202.0901',
    eccentricity => '0.0022963',
    meanmotion => '13.83210602',
    inclination => '82.5547',
    number => '93055',
    argperigee => '158.1243',
    mm1 => '1.03e-06',
    mm2 => '0',
    bstar => '7.9804e-05',
    id => '22782',
    elset => '795',
    epoch => '55.92519544'
  },
  'RS-15' => {
    orbit => '21261',
    raan => '5.4604',
    meananomaly => '49.884',
    eccentricity => '0.0165672',
    meanmotion => '11.27535145',
    inclination => '64.8191',
    number => '94085',
    argperigee => '308.7375',
    mm1 => '-4.1e-07',
    mm2 => '0',
    bstar => '5.0417e-05',
    id => '23439',
    elset => '444',
    epoch => '54.81906506'
  },
  'UO-36' => {
    orbit => '4550',
    raan => '97.4179',
    meananomaly => '46.1718',
    eccentricity => '0.0036872',
    meanmotion => '14.73543732',
    inclination => '64.5547',
    number => '99021',
    argperigee => '313.6325',
    mm1 => '1.039e-05',
    mm2 => '0',
    bstar => '0.00017857',
    id => '25693',
    elset => '180',
    epoch => '55.17269338'
  },
  'WO-18' => {
    orbit => '52664',
    raan => '133.4837',
    meananomaly => '168.5721',
    eccentricity => '0.0011744',
    meanmotion => '14.30478017',
    inclination => '98.4681',
    number => '90005',
    argperigee => '191.5193',
    mm1 => '3.03e-06',
    mm2 => '0',
    bstar => '0.00013252',
    id => '20441',
    elset => '340',
    epoch => '55.24225022'
  }
);
1;
